MEAN_MOTION;ECCENTRICITY;INCLINATION;RA_OF_ASC_NODE;ARG_OF_PERICENTER;MEAN_ANOMALY;BSTAR;MEAN_MOTION_DOT;MEAN_MOTION_DDOT;TYPE
0.99195519;0.0008473;7.7602;52.0879;312.9234;229.867;0;-3.11E-6;0;Intelsat
0.99195039;0.0008472;7.762;52.0808;313.3401;255.4728;0;-3.03E-6;0;Intelsat
0.99194575;0.0008473;7.7636;52.0742;313.6861;251.9809;0;-2.93E-6;0;Intelsat
0.99194329;0.0008475;7.7645;52.0708;313.9067;71.0903;0;-2.86E-6;0;Intelsat
0.99194062;0.0008476;7.7653;52.0675;314.0419;250.2664;0;-2.79E-6;0;Intelsat
0.99194062;0.0008476;7.7653;52.0675;314.0419;250.2664;0;-2.78E-6;0;Intelsat
0.99193816;0.0008477;7.7661;52.0643;314.2404;69.4095;0;-2.7E-6;0;Intelsat
0.99193046;0.0008485;7.7685;52.0549;314.6281;221.354;0;-2.4E-6;0;Intelsat
0.99193003;0.0008487;7.7686;52.0544;314.6804;250.1727;0;-2.38E-6;0;Intelsat
0.9919248;0.0008495;7.7703;52.048;314.9845;245.2256;0;-2.13E-6;0;Intelsat
0.9919197;0.0008508;7.7719;52.0416;315.3193;243.5129;0;-1.86E-6;0;Intelsat
0.99191482;0.0008521;7.7736;52.0352;315.6858;241.7484;0;-1.58E-6;0;Intelsat
0.9919107;0.0008532;7.7751;52.0294;315.9973;214.4617;0;-1.31E-6;0;Intelsat
0.99190677;0.0008549;7.7768;52.0231;316.3686;212.7266;0;-1.01E-6;0;Intelsat
0.99190291;0.0008571;7.7786;52.0165;316.833;236.5803;0;-7.0E-7;0;Intelsat
0.99190033;0.0008585;7.7801;52.0107;317.2251;209.1171;0;-4.4E-7;0;Intelsat
0.99190007;0.0008588;7.7802;52.0102;317.2752;234.642;0;-4.2E-7;0;Intelsat
0.99189861;0.0008594;7.7813;52.0063;317.5667;100.5045;0;-2.6E-7;0;Intelsat
0.99189787;0.0008606;7.7819;52.0041;317.7201;222.6924;0;-1.7E-7;0;Intelsat
0.99189721;0.0008611;7.7828;52.0008;317.9429;51.877;0;-4.0E-8;0;Intelsat
0.99189632;0.0008623;7.7836;51.9977;318.1569;230.9437;0;8.0E-8;0;Intelsat
0.99189572;0.0008637;7.7853;51.9916;318.6376;229.0806;0;3.0E-7;0;Intelsat
0.99189573;0.0008651;7.7869;51.9859;319.0924;201.6582;0;4.7E-7;0;Intelsat
0.99189579;0.0008651;7.7871;51.9855;319.1429;227.2144;0;4.9E-7;0;Intelsat
0.99189663;0.0008663;7.7888;51.9794;319.6737;225.296;0;6.4E-7;0;Intelsat
0.99189719;0.0008669;7.7896;51.9763;319.9192;44.3579;0;7.1E-7;0;Intelsat
0.99189825;0.0008672;7.7905;51.9735;320.2514;215.3026;0;7.6E-7;0;Intelsat
0.99190026;0.000868;7.7921;51.9678;320.7759;195.8121;0;8.3E-7;0;Intelsat
0.99190181;0.0008684;7.793;51.9644;321.053;40.4532;0;8.6E-7;0;Intelsat
0.99190328;0.0008684;7.7938;51.9617;321.3549;205.2324;0;8.7E-7;0;Intelsat
0.9919052;0.000869;7.7949;51.958;321.6587;64.0657;0;8.7E-7;0;Intelsat
0.99190676;0.0008686;7.7956;51.9556;321.925;207.8926;0;8.6E-7;0;Intelsat
0.99190695;0.0008684;7.7957;51.955;321.9586;243.0498;0;8.6E-7;0;Intelsat
0.99191113;0.0008681;7.7974;51.949;322.5111;241.1286;0;8.1E-7;0;Intelsat
0.9919184;0.0008682;7.8002;51.9391;323.299;114.5584;0;6.3E-7;0;Intelsat
0.99191996;0.0008671;7.8007;51.937;323.505;237.363;0;5.8E-7;0;Intelsat
0.99192257;0.0008675;7.8016;51.9339;323.6652;56.5391;0;4.9E-7;0;Intelsat
0.9919284;0.0008656;7.8036;51.9263;324.3139;138.7582;0;2.6E-7;0;Intelsat
0.99193212;0.0008648;7.8049;51.9215;324.6239;52.7511;0;9.0E-8;0;Intelsat
0.99193459;0.000863;7.8057;51.9184;324.9338;228.1085;0;-2.0E-8;0;Intelsat
0.99194165;0.0008616;7.8082;51.9089;325.498;49.2254;0;-4.0E-7;0;Intelsat
0.99194605;0.0008599;7.8099;51.9026;325.853;47.4789;0;-6.5E-7;0;Intelsat
0.99195023;0.0008584;7.8117;51.8961;326.2194;73.3935;0;-9.3E-7;0;Intelsat
0.9919518;0.0008572;7.8124;51.8934;326.345;226.3644;0;-1.03E-6;0;Intelsat
0.99195655;0.0008558;7.8148;51.8843;326.8206;42.4058;0;-1.39E-6;0;Intelsat
0.9919589;0.0008546;7.8165;51.8783;327.178;40.6997;0;-1.62E-6;0;Intelsat
0.99196118;0.0008542;7.8181;51.8723;327.4603;39.0568;0;-1.83E-6;0;Intelsat
0.99196198;0.0008543;7.819;51.8692;327.6239;228.1822;0;-1.93E-6;0;Intelsat
0.99196237;0.0008537;7.8198;51.8664;327.7873;37.3635;0;-2.01E-6;0;Intelsat
0.99196366;0.0008537;7.8214;51.8604;328.1096;35.6893;0;-2.18E-6;0;Intelsat
0.99196372;0.0008541;7.8222;51.8575;328.284;214.8227;0;-2.26E-6;0;Intelsat
0.99196372;0.0008543;7.8239;51.8514;328.666;225.4393;0;-2.4E-6;0;Intelsat
0.99196262;0.0008546;7.8256;51.8453;329.1024;236.8953;0;-2.5E-6;0;Intelsat
0.99196205;0.0008541;7.8265;51.8424;329.2744;56.0563;0;-2.54E-6;0;Intelsat
0.99196154;0.0008547;7.8273;51.8394;329.5377;235.0814;0;-2.58E-6;0;Intelsat
0.99196105;0.0008547;7.8276;51.8386;329.6618;288.8055;0;-2.59E-6;0;Intelsat
0.99196053;0.0008545;7.8281;51.8365;329.7557;54.2007;0;-2.6E-6;0;Intelsat
0.99195883;0.0008551;7.8298;51.8306;330.1717;52.4112;0;-2.63E-6;0;Intelsat
0.99195769;0.0008555;7.8307;51.8275;330.4338;238.674;0;-2.64E-6;0;Intelsat
0.99195369;0.0008556;7.8331;51.8189;331.1049;48.7134;0;-2.61E-6;0;Intelsat
0.99195232;0.0008558;7.834;51.816;331.3891;227.7882;0;-2.58E-6;0;Intelsat
0.99194954;0.0008556;7.8355;51.8107;331.8808;200.32;0;-2.52E-6;0;Intelsat
0.99194915;0.0008556;7.8356;51.8103;331.9213;225.8867;0;-2.52E-6;0;Intelsat
0.99194327;0.0008552;7.8385;51.8004;332.8246;121.9993;0;-2.35E-6;0;Intelsat
0.99194255;0.0008547;7.839;51.7989;333.006;215.1974;0;-2.32E-6;0;Intelsat
0.99193869;0.0008537;7.8407;51.7931;333.5656;220.0677;0;-2.19E-6;0;Intelsat
0.99193666;0.0008529;7.8415;51.7902;333.8156;39.1693;0;-2.12E-6;0;Intelsat
0.99193439;0.0008522;7.8424;51.7869;334.1503;247.7519;0;-2.04E-6;0;Intelsat
0.99193131;0.0008507;7.8439;51.7817;334.646;217.5459;0;-1.89E-6;0;Intelsat
0.9919276;0.0008488;7.8455;51.7759;335.1562;214.3523;0;-1.73E-6;0;Intelsat
0.99192451;0.0008469;7.8471;51.7705;335.6151;186.9225;0;-1.58E-6;0;Intelsat
0.99192409;0.0008467;7.8472;51.7699;335.662;217.5191;0;-1.56E-6;0;Intelsat
0.99191799;0.0008418;7.8503;51.7585;336.5476;183.2348;0;-1.24E-6;0;Intelsat
0.99191778;0.0008415;7.8504;51.7581;336.5875;208.802;0;-1.23E-6;0;Intelsat
0.99191502;0.000838;7.852;51.752;337.0397;206.9727;0;-1.05E-6;0;Intelsat
0.9919129;0.000835;7.8535;51.7463;337.3995;179.6443;0;-8.9E-7;0;Intelsat
0.99191231;0.0008348;7.8537;51.7455;337.4937;228.9748;0;-8.6E-7;0;Intelsat
0.99191028;0.0008316;7.8552;51.7399;337.8417;203.3914;0;-6.9E-7;0;Intelsat
0.99190924;0.0008309;7.8562;51.7365;337.9917;48.1229;0;-5.9E-7;0;Intelsat
0.99190832;0.0008292;7.857;51.7336;338.1118;227.3563;0;-5.0E-7;0;Intelsat
0.99190625;0.0008254;7.8594;51.7248;338.6302;44.7604;0;-2.2E-7;0;Intelsat
0.99190608;0.0008237;7.8604;51.7211;338.78;273.9565;0;-1.1E-7;0;Intelsat
0.99190574;0.0008225;7.861;51.719;338.944;43.0734;0;-5.0E-8;0;Intelsat
0.99190534;0.00082;7.8626;51.7132;339.2439;41.3903;0;1.1E-7;0;Intelsat
0.99190561;0.0008193;7.8634;51.7102;339.3712;227.093;0;1.9E-7;0;Intelsat
0.99190718;0.0008157;7.8668;51.6979;340.0158;274.3282;0;4.6E-7;0;Intelsat
0.99190735;0.0008149;7.8671;51.6967;340.1239;348.7831;0;4.8E-7;0;Intelsat
0.99190839;0.0008145;7.8681;51.693;340.2877;218.3604;0;5.4E-7;0;Intelsat
0.99190883;0.000814;7.8686;51.6913;340.433;324.952;0;5.6E-7;0;Intelsat
0.99191036;0.0008131;7.8698;51.6871;340.6684;224.4989;0;6.1E-7;0;Intelsat
0.99191197;0.0008117;7.8711;51.6824;340.9403;153.2901;0;6.4E-7;0;Intelsat
0.99191224;0.0008119;7.8713;51.6815;341.0009;205.8425;0;6.5E-7;0;Intelsat
0.99191584;0.0008107;7.8731;51.6752;341.4181;242.3411;0;6.7E-7;0;Intelsat
0.99191879;0.0008097;7.8746;51.6697;341.804;221.8292;0;6.5E-7;0;Intelsat
0.99192223;0.0008088;7.8762;51.6639;342.2079;223.2175;0;6.1E-7;0;Intelsat
0.99192614;0.0008075;7.8778;51.6581;342.6552;225.5799;0;5.4E-7;0;Intelsat
0.99193056;0.0008062;7.8795;51.6522;343.0919;229.1371;0;4.4E-7;0;Intelsat
0.99193487;0.0008048;7.8811;51.6465;343.5465;226.963;0;3.0E-7;0;Intelsat
0.99193963;0.0008029;7.8827;51.6406;344.0309;237.5368;0;1.4E-7;0;Intelsat
0.99194376;0.0008007;7.8842;51.6351;344.536;219.0584;0;-5.0E-8;0;Intelsat
0.99194803;0.0007987;7.8857;51.6297;344.9983;195.5777;0;-2.5E-7;0;Intelsat
0.9919534;0.0007953;7.8878;51.6219;345.4967;315.621;0;-5.8E-7;0;Intelsat
0.99195645;0.0007932;7.889;51.6175;345.9248;217.5089;0;-7.7E-7;0;Intelsat
0.9919575;0.0007918;7.8894;51.6159;346.0089;317.6749;0;-8.5E-7;0;Intelsat
0.99196049;0.0007891;7.8906;51.6113;346.4341;229.9946;0;-1.06E-6;0;Intelsat
0.99196397;0.0007854;7.8921;51.6054;346.8667;218.6247;0;-1.34E-6;0;Intelsat
0.99196681;0.0007809;7.8937;51.599;347.2873;235.1455;0;-1.65E-6;0;Intelsat
0.9919693;0.0007754;7.8956;51.5917;347.7694;300.5665;0;-1.98E-6;0;Intelsat
0.9919693;0.0007754;7.8956;51.5917;347.7694;300.5665;0;-1.98E-6;0;Intelsat
0.99197087;0.0007715;7.8967;51.5871;348.0833;208.5096;0;-2.19E-6;0;Intelsat
0.99197218;0.0007664;7.8984;51.5805;348.4244;229.5599;0;-2.45E-6;0;Intelsat
0.99197229;0.0007648;7.8989;51.5783;348.5514;0.4037;0;-2.53E-6;0;Intelsat
0.99197231;0.0007618;7.8999;51.5743;348.7208;226.8614;0;-2.67E-6;0;Intelsat
0.99197202;0.000757;7.9014;51.5684;349.0308;217.0515;0;-2.85E-6;0;Intelsat
0.99197104;0.0007527;7.903;51.5624;349.3039;213.2899;0;-3.0E-6;0;Intelsat
0.99196935;0.000749;7.9045;51.5565;349.5185;209.8244;0;-3.11E-6;0;Intelsat
0.99196579;0.0007442;7.9065;51.549;349.889;308.3338;0;-3.19E-6;0;Intelsat
0.99196579;0.0007442;7.9065;51.549;349.889;308.3338;0;-3.19E-6;0;Intelsat
0.99196375;0.0007416;7.9076;51.5448;350.0156;199.3274;0;-3.21E-6;0;Intelsat
0.99196048;0.0007378;7.9091;51.5388;350.3132;199.2046;0;-3.2E-6;0;Intelsat
0.99195693;0.0007349;7.9105;51.5336;350.5282;153.3711;0;-3.14E-6;0;Intelsat
0.99195497;0.0007351;7.9111;51.5313;350.7038;291.0466;0;-3.12E-6;0;Intelsat
0.9919515;0.0007329;7.9122;51.5269;350.8394;192.1223;0;-3.04E-6;0;Intelsat
0.99194702;0.0007301;7.9136;51.5214;351.1412;164.857;0;-2.91E-6;0;Intelsat
0.99194107;0.0007273;7.9154;51.5145;351.5785;214.2305;0;-2.7E-6;0;Intelsat
0.99193555;0.0007248;7.917;51.5085;351.9215;212.5339;0;-2.48E-6;0;Intelsat
0.99193042;0.0007218;7.9186;51.5024;352.3229;210.7329;0;-2.24E-6;0;Intelsat
0.99192514;0.000719;7.9201;51.4965;352.7564;208.9491;0;-1.96E-6;0;Intelsat
0.99192016;0.0007161;7.9217;51.4905;353.1886;207.1341;0;-1.67E-6;0;Intelsat
0.9919153;0.0007136;7.9233;51.4846;353.5942;205.3198;0;-1.37E-6;0;Intelsat
0.99191011;0.0007096;7.9252;51.4774;354.1514;278.7435;0;-1.0E-6;0;Intelsat
0.9919071;0.0007072;7.9264;51.4727;354.5086;201.6493;0;-7.6E-7;0;Intelsat
